*******************************************************************************
JPL/HORIZONS                 209 Dido (A879 UC)            2020-Jun-22 08:39:51
Rec #:     209 (+COV) Soln.date: 2020-May-20_01:00:42   # obs: 2836 (1879-2020)
 
IAU76/J2000 helio. ecliptic osc. elements (au, days, deg., period=Julian yrs):
 
  EPOCH=  2455792.5 ! 2011-Aug-19.00 (TDB)         Residual RMS= .3404
   EC= .06109872946494057  QR= 2.954600829376231   TP= 2455845.2423311626
   OM= .7594675318777588   W=  250.2035385246994   IN= 7.168982015919086
   A= 3.146870626442403    MA= 350.6879550812976   ADIST= 3.339140423508575
   PER= 5.58247            N= .17655732            ANGMOM= .030458516
   DAN= 3.20137            DDN= 3.07156            L= 250.8192871
   B= -6.7432777           MOID= 1.95178998        TP= 2011-Oct-10.7423311626
 
Asteroid physical parameters (km, seconds, rotational period in hours):
   GM= n.a.                RAD= 89.504             ROTPER= 5.7366
   H= 8.2                  G= .150                 B-V= .691
                           ALBEDO= .028            STYP= Xc
 
ASTEROID comments: 
1: soln ref.= JPL#101, OCC=0
2: source=ORB
*******************************************************************************
 
 
*******************************************************************************
Ephemeris / WWW_USER Mon Jun 22 08:39:51 2020 Pasadena, USA      / Horizons
*******************************************************************************
Target body name: 209 Dido (A879 UC)              {source: JPL#101}
Center body name: Solar System Barycenter (0)     {source: DE431}
Center-site name: BODY CENTER
*******************************************************************************
Start time      : A.D. 1969-Jun-28 00:00:00.0000 TDB
Stop  time      : A.D. 2071-May-04 00:00:00.0000 TDB
Step-size       : 7200 minutes
*******************************************************************************
Center geodetic : 0.00000000,0.00000000,0.0000000 {E-lon(deg),Lat(deg),Alt(km)}
Center cylindric: 0.00000000,0.00000000,0.0000000 {E-lon(deg),Dxy(km),Dz(km)}
Center radii    : (undefined)                                                  
Small perturbers: Yes                             {source: SB431-N16}
Output units    : AU-D
Output type     : GEOMETRIC cartesian states
Output format   : 2 (position and velocity)
Reference frame : Ecliptic of J2000.0
*******************************************************************************
Initial IAU76/J2000 heliocentric ecliptic osculating elements (au, days, deg.):
  EPOCH=  2455792.5 ! 2011-Aug-19.00 (TDB)         Residual RMS= .3404         
   EC= .06109872946494057  QR= 2.954600829376231   TP= 2455845.2423311626      
   OM= .7594675318777588   W=  250.2035385246994   IN= 7.168982015919086       
  Equivalent ICRF heliocentric equatorial cartesian coordinates (au, au/d):
   X=-1.459910613322138E+00  Y=-2.214902344548120E+00  Z=-1.307482940035890E+00
  VX= 9.010147964731124E-03 VY=-4.286715281996497E-03 VZ=-2.553245778363215E-03
Asteroid physical parameters (km, seconds, rotational period in hours):        
   GM= n.a.                RAD= 89.504             ROTPER= 5.7366              
   H= 8.2                  G= .150                 B-V= .691                   
                           ALBEDO= .028            STYP= Xc                    
*******************************************************************************
            JDTDB,            Calendar Date (TDB),        delta-T,                      X,                      Y,                      Z,                     VX,                     VY,                     VZ,
******************************************************************************************************************************************************************************************************************
$$SOE
2470780.500000000, A.D. 2052-Aug-31 00:00:00.0000,      69.182626,  3.127684472536955E+00,  5.150109418284978E-01,  6.918460932977433E-02, -1.053618212172682E-03,  9.513564529945664E-03,  1.188306845154239E-03,
2470785.500000000, A.D. 2052-Sep-05 00:00:00.0000,      69.182551,  3.122053196840658E+00,  5.625171655551608E-01,  7.511786692781296E-02, -1.198787818193033E-03,  9.488567492265797E-03,  1.184951622201987E-03,
2470790.500000000, A.D. 2052-Sep-10 00:00:00.0000,      69.182486,  3.115697662009660E+00,  6.098930559252670E-01,  8.103368160733325E-02, -1.343316846675493E-03,  9.461433970462748E-03,  1.181330033973882E-03,
2470795.500000000, A.D. 2052-Sep-15 00:00:00.0000,      69.182433,  3.108621145841199E+00,  6.571279725475404E-01,  8.693072692000706E-02, -1.487175410024078E-03,  9.432180832321346E-03,  1.177444238570603E-03,
2470800.500000000, A.D. 2052-Sep-20 00:00:00.0000,      69.182392,  3.100827074427220E+00,  7.042113602003839E-01,  9.280768730999522E-02, -1.630334077926040E-03,  9.400825275933831E-03,  1.173296434644444E-03,
2470805.500000000, A.D. 2052-Sep-25 00:00:00.0000,      69.182364,  3.092319019868553E+00,  7.511327504535541E-01,  9.866325831308592E-02, -1.772763877075275E-03,  9.367384817768415E-03,  1.168888859955167E-03,
2470810.500000000, A.D. 2052-Sep-30 00:00:00.0000,      69.182347,  3.083100697991036E+00,  7.978817632304016E-01,  1.044961467486653E-01, -1.914436290679152E-03,  9.331877280830356E-03,  1.164223789945971E-03,
2470815.500000000, A.D. 2052-Oct-05 00:00:00.0000,      69.182341,  3.073175966064476E+00,  8.444481083112400E-01,  1.103050709046007E-01, -2.055323257825710E-03,  9.294320782965139E-03,  1.159303536332135E-03,
2470820.500000000, A.D. 2052-Oct-10 00:00:00.0000,      69.182347,  3.062548820525097E+00,  8.908215867787005E-01,  1.160887607150985E-01, -2.195397172723298E-03,  9.254733725356751E-03,  1.154130445701519E-03,
2470825.500000000, A.D. 2052-Oct-15 00:00:00.0000,      69.182365,  3.051223394702105E+00,  9.369920924061830E-01,  1.218459579315936E-01, -2.334630883810685E-03,  9.213134781276647E-03,  1.148706898127906E-03,
2470830.500000000, A.D. 2052-Oct-20 00:00:00.0000,      69.182397,  3.039203956549095E+00,  9.829496129907651E-01,  1.275754162867481E-01, -2.472997692699519E-03,  9.169542885123914E-03,  1.143035305802238E-03,
2470835.500000000, A.D. 2052-Oct-25 00:00:00.0000,      69.182441,  3.026494906381290E+00,  1.028684231632098E+00,  1.332759016516661E-01, -2.610471352891526E-03,  9.123977221780899E-03,  1.137118111688578E-03,
2470840.500000000, A.D. 2052-Oct-30 00:00:00.0000,      69.182497,  3.013100774619893E+00,  1.074186127958847E+00,  1.389461921864610E-01, -2.747026068204173E-03,  9.076457216268581E-03,  1.130957788210176E-03,
2470845.500000000, A.D. 2052-Nov-04 00:00:00.0000,      69.182563,  2.999026219545100E+00,  1.119445579304002E+00,  1.445850784843206E-01, -2.882636490884125E-03,  9.027002523619147E-03,  1.124556835959603E-03,
2470850.500000000, A.D. 2052-Nov-09 00:00:00.0000,      69.182638,  2.984276025059104E+00,  1.164452961829843E+00,  1.501913637091388E-01, -3.017277719543025E-03,  8.975633018852380E-03,  1.117917782410737E-03,
2470855.500000000, A.D. 2052-Nov-14 00:00:00.0000,      69.182725,  2.968855098459304E+00,  1.209198751603087E+00,  1.557638637266832E-01, -3.150925297168428E-03,  8.922368787108779E-03,  1.111043180626118E-03,
2470860.500000000, A.D. 2052-Nov-19 00:00:00.0000,      69.182823,  2.952768468221337E+00,  1.253673525621785E+00,  1.613014072294142E-01, -3.283555209102597E-03,  8.867230114274033E-03,  1.103935608024601E-03,
2470865.500000000, A.D. 2052-Nov-24 00:00:00.0000,      69.182930,  2.936021281793603E+00,  1.297867962796824E+00,  1.668028358554377E-01, -3.415143880389934E-03,  8.810237478142474E-03,  1.096597665267478E-03,
2470870.500000000, A.D. 2052-Nov-29 00:00:00.0000,      69.183045,  2.918618803406772E+00,  1.341772844889599E+00,  1.722670043020498E-01, -3.545668172512660E-03,  8.751411539653435E-03,  1.089031975189806E-03,
2470875.500000000, A.D. 2052-Dec-04 00:00:00.0000,      69.183166,  2.900566411900003E+00,  1.385379057405632E+00,  1.776927804338938E-01, -3.675105380049249E-03,  8.690773134046585E-03,  1.081241181713300E-03,
2470880.500000000, A.D. 2052-Dec-09 00:00:00.0000,      69.183293,  2.881869598563545E+00,  1.428677590444178E+00,  1.830790453856682E-01, -3.803433227448881E-03,  8.628343262143666E-03,  1.073227948759250E-03,
2470885.500000000, A.D. 2052-Dec-14 00:00:00.0000,      69.183426,  2.862533964997488E+00,  1.471659539504875E+00,  1.884246936594693E-01, -3.930629865773524E-03,  8.564143081887399E-03,  1.064994959192293E-03,
2470890.500000000, A.D. 2052-Dec-19 00:00:00.0000,      69.183564,  2.842565220987095E+00,  1.514316106252731E+00,  1.937286332169420E-01, -4.056673869318349E-03,  8.498193900135693E-03,  1.056544913800166E-03,
2470895.500000000, A.D. 2052-Dec-24 00:00:00.0000,      69.183707,  2.821969182395352E+00,  1.556638599242673E+00,  1.989897855664127E-01, -4.181544232104795E-03,  8.430517164688098E-03,  1.047880530305505E-03,
2470900.500000000, A.D. 2052-Dec-29 00:00:00.0000,      69.183851,  2.800751769073336E+00,  1.598618434604788E+00,  2.042070858451538E-01, -4.305220364264404E-03,  8.361134456534360E-03,  1.039004542406288E-03,
2470905.500000000, A.D. 2053-Jan-03 00:00:00.0000,      69.183995,  2.778919002788902E+00,  1.640247136691347E+00,  2.093794828969177E-01, -4.427682088328055E-03,  8.290067482322744E-03,  1.029919698843462E-03,
2470910.500000000, A.D. 2053-Jan-08 00:00:00.0000,      69.184138,  2.756477005174136E+00,  1.681516338686735E+00,  2.145059393448761E-01, -4.548909635434969E-03,  8.217338067050410E-03,  1.020628762495229E-03,
2470915.500000000, A.D. 2053-Jan-13 00:00:00.0000,      69.184281,  2.733431995691945E+00,  1.722417783181391E+00,  2.195854316601004E-01, -4.668883641466588E-03,  8.142968146981783E-03,  1.011134509498921E-03,
